IRIDIUM 135             
1 43070U 17083A   26156.84906353  .00000045  00000+0  91765-5 0  9992
2 43070  86.3963 326.7578 0002196  90.2716 269.8731 14.34218253442528
IRIDIUM 138             
1 43071U 17083B   26156.45582414  .00000121  00000+0  36068-4 0  9997
2 43071  86.3968 326.6153 0002417  88.8838 271.2635 14.34216574442452
IRIDIUM 116             
1 43072U 17083C   26156.84271740  .00000050  00000+0  10915-4 0  9992
2 43072  86.3957 326.7458 0001876  92.9382 267.2029 14.34218534442548
IRIDIUM 130             
1 43073U 17083D   26156.46216553  .00000670  00000+0  23229-3 0  9991
2 43073  86.3962 327.1795 0002017  87.6740 272.4687 14.34218631442435
IRIDIUM 151             
1 43074U 17083E   26156.85540687  .00000101  00000+0  29055-4 0  9996
2 43074  86.3956 326.7979 0002097  90.7639 269.3797 14.34217401442518
IRIDIUM 134             
1 43075U 17083F   26157.17253660  .00000092  00000+0  25967-4 0  9992
2 43075  86.3961 326.6733 0002085  88.1743 271.9692 14.34218327442528
IRIDIUM 137             
1 43076U 17083G   26156.83637807  .00000097  00000+0  27595-4 0  9998
2 43076  86.3964 326.9066 0001898 101.5125 258.6284 14.34217653442541
IRIDIUM 141             
1 43077U 17083H   26157.17887945 -.00000038  00000+0 -20627-4 0  9993
2 43077  86.3953 326.5946 0002089  90.5124 269.6311 14.34217149442590
IRIDIUM 153             
1 43078U 17083J   26157.13105884  .00000038  00000+0  63377-5 0  9993
2 43078  86.3953 295.0945 0002365  90.1529 269.9938 14.34217644443692
IRIDIUM 131             
1 43079U 17083K   26157.16619347 -.00000039  00000+0 -20824-4 0  9993
2 43079  86.3957 326.7851 0002071  92.4333 267.7100 14.34217527442525
IRIDIUM 144             
1 43249U 18030A   26156.85832575  .00000122  00000+0  36597-4 0  9995
2 43249  86.3950 295.1383 0002026  96.8143 263.3283 14.34217688428518
IRIDIUM 149             
1 43250U 18030B   26157.14374382  .00000043  00000+0  82204-5 0  9996
2 43250  86.3950 294.9858 0002263  93.0834 267.0621 14.34217624428576
IRIDIUM 157             
1 43251U 18030C   26157.09300264  .00000009  00000+0 -38494-5 0  9994
2 43251  86.3947 295.0600 0002080  93.5051 266.6383 14.34217458428545
IRIDIUM 140             
1 43252U 18030D   26156.83295632  .00000038  00000+0  65666-5 0  9990
2 43252  86.3951 295.1812 0002154  92.1364 268.0078 14.34217655428569
IRIDIUM 145             
1 43253U 18030E   26156.89003826  .00000084  00000+0  22927-4 0  9992
2 43253  86.3951 295.1298 0001844  96.0037 264.1369 14.34217326428502
IRIDIUM 146             
1 43254U 18030F   26156.87101165  .00000005  00000+0 -52880-5 0  9992
2 43254  86.3947 295.1500 0001952  94.3523 265.7895 14.34217426428518
IRIDIUM 148             
1 43255U 18030G   26157.11837211 -.00000001  00000+0 -74274-5 0  9997
2 43255  86.3949 295.0895 0002069  97.0254 263.1177 14.34217538428584
IRIDIUM 142             
1 43256U 18030H   26157.08665956  .00000038  00000+0  66001-5 0  9996
2 43256  86.3946 294.9918 0002017  94.9587 265.1839 14.34217554428545
IRIDIUM 150             
1 43257U 18030J   26157.12471589  .00000035  00000+0  52625-5 0  9993
2 43257  86.3952 295.0921 0002156  91.8326 268.3117 14.34217549428571
IRIDIUM 143             
1 43258U 18030K   26157.10568757  .00000015  00000+0 -15860-5 0  9995
2 43258  86.3950 295.1922 0001972  94.0627 266.0794 14.34217467428504
IRIDIUM 161             
1 43478U 18047C   26156.86806170  .00000363  00000+0  10183-3 0  9999
2 43478  86.4479  93.2035 0002463  88.8767 271.2716 14.43283723423504
IRIDIUM 152             
1 43479U 18047D   26157.07840636  .00000051  00000+0  11070-4 0  9990
2 43479  86.3954  92.9765 0002371  84.2511 275.8955 14.34217779420895
IRIDIUM 147             
1 43480U 18047E   26157.08474790 -.00000004  00000+0 -86504-5 0  9992
2 43480  86.3956  92.9787 0002033  83.7112 276.4316 14.34216884420893
IRIDIUM 110             
1 43481U 18047F   26157.09109174  .00000042  00000+0  80706-5 0  9993
2 43481  86.3957  93.0677 0002581  87.6962 272.4530 14.34217780420888
IRIDIUM 162             
1 43482U 18047G   26156.86176463  .00000419  00000+0  11870-3 0  9995
2 43482  86.4476  93.0974 0002375  83.5923 276.5548 14.43275475423498
IRIDIUM 160             
1 43569U 18061A   26156.96715820  .00000079  00000+0  21043-4 0  9990
2 43569  86.3968  61.4881 0002263  87.1223 273.0232 14.34218037411764
IRIDIUM 166             
1 43570U 18061B   26156.99252867  .00000024  00000+0  15418-5 0  9992
2 43570  86.3965  61.4280 0002084  83.6645 276.4788 14.34217681411796
IRIDIUM 158             
1 43571U 18061C   26156.82127799  .00000113  00000+0  33251-4 0  9993
2 43571  86.3967  61.5097 0002309  84.2636 275.8823 14.34216947411734
IRIDIUM 165             
1 43572U 18061D   26156.98617843  .00000285  00000+0  94522-4 0  9993
2 43572  86.3969  61.4870 0002086  84.2602 275.8832 14.34221009411780
IRIDIUM 155             
1 43573U 18061E   26156.80859361  .00000048  00000+0  10052-4 0  9991
2 43573  86.3963  61.4305 0002184  82.4557 277.6887 14.34217755411723
