OBJECT_NAME,OBJECT_ID,EPOCH,MEAN_MOTION,ECCENTRICITY,INCLINATION,RA_OF_ASC_NODE,ARG_OF_PERICENTER,MEAN_ANOMALY,EPHEMERIS_TYPE,CLASSIFICATION_TYPE,NORAD_CAT_ID,ELEMENT_SET_NO,REV_AT_EPOCH,BSTAR,MEAN_MOTION_DOT,MEAN_MOTION_DDOT
IRIDIUM 135,2017-083A,2026-06-05T20:22:39.088992,14.34218253,.00021966,86.3963,326.7578,90.2716,269.8731,0,U,43070,999,44252,.9176538E-5,.45E-6,0
IRIDIUM 138,2017-083B,2026-06-05T10:56:23.205696,14.34216574,.00024172,86.3968,326.6153,88.8838,271.2635,0,U,43071,999,44245,.36067943E-4,.121E-5,0
IRIDIUM 116,2017-083C,2026-06-05T20:13:30.783360,14.34218534,.00018762,86.3957,326.7458,92.9382,267.2029,0,U,43072,999,44254,.10914935E-4,.5E-6,0
IRIDIUM 130,2017-083D,2026-06-05T11:05:31.101792,14.34218631,.00020179,86.3962,327.1795,87.6740,272.4687,0,U,43073,999,44243,.23229466E-3,.67E-5,0
IRIDIUM 151,2017-083E,2026-06-05T20:31:47.153568,14.34217401,.0002097,86.3956,326.7979,90.7639,269.3797,0,U,43074,999,44251,.2905544E-4,.101E-5,0
IRIDIUM 134,2017-083F,2026-06-06T04:08:27.162240,14.34218327,.00020857,86.3961,326.6733,88.1743,271.9692,0,U,43075,999,44252,.25966693E-4,.92E-6,0
IRIDIUM 137,2017-083G,2026-06-05T20:04:23.065248,14.34217653,.00018989,86.3964,326.9066,101.5125,258.6284,0,U,43076,999,44254,.27594722E-4,.97E-6,0
IRIDIUM 141,2017-083H,2026-06-06T04:17:35.184480,14.34217149,.00020893,86.3953,326.5946,90.5124,269.6311,0,U,43077,999,44259,-.20626855E-4,-.38E-6,0
IRIDIUM 153,2017-083J,2026-06-06T03:08:43.483776,14.34217644,.00023654,86.3953,295.0945,90.1529,269.9938,0,U,43078,999,44369,.633775E-5,.38E-6,0
IRIDIUM 131,2017-083K,2026-06-06T03:59:19.115808,14.34217527,.00020715,86.3957,326.7851,92.4333,267.7100,0,U,43079,999,44252,-.20824253E-4,-.39E-6,0
IRIDIUM 144,2018-030A,2026-06-05T20:35:59.344800,14.34217688,.00020263,86.3950,295.1383,96.8143,263.3283,0,U,43249,999,42851,.36597219E-4,.122E-5,0
IRIDIUM 149,2018-030B,2026-06-06T03:26:59.466048,14.34217624,.00022632,86.3950,294.9858,93.0834,267.0621,0,U,43250,999,42857,.8220373E-5,.43E-6,0
IRIDIUM 157,2018-030C,2026-06-06T02:13:55.428096,14.34217458,.00020802,86.3947,295.0600,93.5051,266.6383,0,U,43251,999,42854,-.3849408E-5,.9E-7,0
IRIDIUM 140,2018-030D,2026-06-05T19:59:27.426048,14.34217655,.00021541,86.3951,295.1812,92.1364,268.0078,0,U,43252,999,42856,.6566595E-5,.38E-6,0
IRIDIUM 145,2018-030E,2026-06-05T21:21:39.305664,14.34217326,.00018444,86.3951,295.1298,96.0037,264.1369,0,U,43253,999,42850,.22926931E-4,.84E-6,0
IRIDIUM 146,2018-030F,2026-06-05T20:54:15.406560,14.34217426,.00019529,86.3947,295.1500,94.3523,265.7895,0,U,43254,999,42851,-.5288038E-5,.5E-7,0
IRIDIUM 148,2018-030G,2026-06-06T02:50:27.350304,14.34217538,.00020696,86.3949,295.0895,97.0254,263.1177,0,U,43255,999,42858,-.7427421E-5,-.1E-7,0
IRIDIUM 142,2018-030H,2026-06-06T02:04:47.385984,14.34217554,.00020172,86.3946,294.9918,94.9587,265.1839,0,U,43256,999,42854,.660014E-5,.38E-6,0
IRIDIUM 150,2018-030J,2026-06-06T02:59:35.452896,14.34217549,.00021567,86.3952,295.0921,91.8326,268.3117,0,U,43257,999,42857,.5262515E-5,.35E-6,0
IRIDIUM 143,2018-030K,2026-06-06T02:32:11.406048,14.34217467,.00019726,86.3950,295.1922,94.0627,266.0794,0,U,43258,999,42850,-.1586021E-5,.15E-6,0
IRIDIUM 161,2018-047C,2026-06-05T20:50:00.530880,14.43283723,.00024638,86.4479,93.2035,88.8767,271.2716,0,U,43478,999,42350,.10183413E-3,.363E-5,0
IRIDIUM 152,2018-047D,2026-06-06T01:52:54.309504,14.34217779,.00023717,86.3954,92.9765,84.2511,275.8955,0,U,43479,999,42089,.11069646E-4,.51E-6,0
IRIDIUM 147,2018-047E,2026-06-06T02:02:02.218560,14.34216884,.00020337,86.3956,92.9787,83.7112,276.4316,0,U,43480,999,42089,-.8650377E-5,-.4E-7,0
IRIDIUM 110,2018-047F,2026-06-06T02:11:10.326336,14.34217780,.00025817,86.3957,93.0677,87.6962,272.4530,0,U,43481,999,42088,.8070594E-5,.42E-6,0
IRIDIUM 162,2018-047G,2026-06-05T20:40:56.464032,14.43275475,.00023757,86.4476,93.0974,83.5923,276.5548,0,U,43482,999,42349,.1187012E-3,.419E-5,0
IRIDIUM 160,2018-061A,2026-06-05T23:12:42.468480,14.34218037,.00022637,86.3968,61.4881,87.1223,273.0232,0,U,43569,999,41176,.21043454E-4,.79E-6,0
IRIDIUM 166,2018-061B,2026-06-05T23:49:14.477088,14.34217681,.00020849,86.3965,61.4280,83.6645,276.4788,0,U,43570,999,41179,.1541776E-5,.24E-6,0
IRIDIUM 158,2018-061C,2026-06-05T19:42:38.418336,14.34216947,.0002309,86.3967,61.5097,84.2636,275.8823,0,U,43571,999,41173,.33251E-4,.113E-5,0
IRIDIUM 165,2018-061D,2026-06-05T23:40:05.816352,14.34221009,.00020863,86.3969,61.4870,84.2602,275.8832,0,U,43572,999,41178,.94522161E-4,.285E-5,0
IRIDIUM 155,2018-061E,2026-06-05T19:24:22.487904,14.34217755,.0002184,86.3963,61.4305,82.4557,277.6887,0,U,43573,999,41172,.10052388E-4,.48E-6,0
